NORAD_CAT_ID,OBJECT_NAME,OBJECT_TYPE,EPOCH,MEAN_MOTION,ECCENTRICITY,INCLINATION,RA_OF_ASC_NODE,ARG_OF_PERICENTER,MEAN_ANOMALY,BSTAR,MEAN_MOTION_DOT,MEAN_MOTION_DDOT,TLE_LINE0,TLE_LINE1,TLE_LINE2,SEMIMAJOR_AXIS,PERIOD,APOGEE,PERIGEE,DECAYED
54760.0,STARLINK-5220,PAYLOAD,2024-04-17 10:57:46,15.08834125,0.0001381,53.215,267.3753,91.2942,268.8208,-9.9818e-05,-1.876e-05,0.0,0 STARLINK-5220,1 54760U 22175C   24108.45678387 -.00001876  00000-0 -99818-4 0  9995,2 54760  53.2150 267.3753 0001381  91.2942 268.8208 15.08834125 73408,6917.898,95.438,540.719,538.808,0.0
54760.0,STARLINK-5220,PAYLOAD,2024-04-17 14:08:32,15.08829594,0.0001403,53.2153,266.7799,91.1805,268.9347,-0.00015492,-2.752e-05,0.0,0 STARLINK-5220,1 54760U 22175C   24108.58926659 -.00002752  00000-0 -15492-3 0  9996,2 54760  53.2153 266.7799 0001403  91.1805 268.9347 15.08829594 75586,6917.912,95.438,540.748,538.807,0.0
54760.0,STARLINK-5220,PAYLOAD,2024-04-17 17:19:19,15.08829619,0.0001879,53.2173,266.1856,102.2277,257.8925,2.1031e-05,4.7e-07,0.0,0 STARLINK-5220,1 54760U 22175C   24108.72174845  .00000047  00000-0  21031-4 0  9994,2 54760  53.2173 266.1856 0001879 102.2277 257.8925 15.08829619 75600,6917.912,95.438,541.077,538.477,0.0
54760.0,STARLINK-5220,PAYLOAD,2024-04-18 13:59:16,15.08880825,0.0002086,53.2179,262.3206,115.7494,244.3713,0.00041581,6.343e-05,0.0,0 STARLINK-5220,1 54760U 22175C   24109.58282633  .00006343  00000-0  41581-3 0  9990,2 54760  53.2179 262.3206 0002086 115.7494 244.3713 15.08880825 75730,6917.756,95.435,541.064,538.178,0.0
54760.0,STARLINK-5220,PAYLOAD,2024-04-18 15:34:39,15.08873733,0.0001422,53.2179,262.0259,70.9251,289.1895,0.00037227,5.647e-05,0.0,0 STARLINK-5220,1 54760U 22175C   24109.64907245  .00005647  00000-0  37227-3 0  9998,2 54760  53.2179 262.0259 0001422  70.9251 289.1895 15.08873733 73580,6917.777,95.435,540.626,538.659,0.0
54760.0,STARLINK-5220,PAYLOAD,2024-04-19 10:39:19,15.08841895,0.0002679,53.2169,258.4505,111.1779,248.9499,0.00018659,2.683e-05,0.0,0 STARLINK-5220,1 54760U 22175C   24110.44398007  .00002683  00000-0  18659-3 0  9993,2 54760  53.2169 258.4505 0002679 111.1779 248.9499 15.08841895 73701,6917.875,95.437,541.593,537.886,0.0
54760.0,STARLINK-5220,PAYLOAD,2024-04-19 13:50:05,15.08852741,0.0001349,53.2168,257.8558,96.5669,263.5477,0.00028586,4.266e-05,0.0,0 STARLINK-5220,1 54760U 22175C   24110.57645201  .00004266  00000-0  28586-3 0  9997,2 54760  53.2168 257.8558 0001349  96.5669 263.5477 15.08852741 75880,6917.841,95.437,540.64,538.773,0.0
54760.0,STARLINK-5220,PAYLOAD,2024-04-19 18:36:11,15.08916074,0.0001065,53.216,256.9635,106.6943,253.4166,0.0011617,0.00018287,0.0,0 STARLINK-5220,1 54760U 22175C   24110.77513767  .00018287  00000-0  11617-2 0  9994,2 54760  53.2160 256.9635 0001065 106.6943 253.4166 15.08916074 73758,6917.648,95.433,540.25,538.776,0.0
54760.0,STARLINK-5220,PAYLOAD,2024-04-20 13:40:52,15.08839222,0.0001363,53.2174,253.4097,85.2172,274.8976,-0.00035441,-5.924e-05,0.0,0 STARLINK-5220,1 54760U 22175C   24111.57005413 -.00005924  00000-0 -35441-3 0  9995,2 54760  53.2174 253.4097 0001363  85.2172 274.8976 15.08839222 73872,6917.883,95.438,540.691,538.805,0.0
54760.0,STARLINK-5220,PAYLOAD,2024-04-20 18:27:01,15.08857884,0.0001369,53.2168,252.5137,70.0396,290.0744,-5.5236e-05,-1.167e-05,0.0,0 STARLINK-5220,1 54760U 22175C   24111.76876585 -.00001167  00000-0 -55236-4 0  9992,2 54760  53.2168 252.5137 0001369  70.0396 290.0744 15.08857884 73907,6917.826,95.436,540.638,538.744,0.0
54760.0,STARLINK-5220,PAYLOAD,2024-04-21 13:31:40,15.08832198,0.0001908,53.2169,248.9374,127.0358,233.0809,-0.00022931,-3.935e-05,0.0,0 STARLINK-5220,1 54760U 22175C   24112.56366119 -.00003935  00000-0 -22931-3 0  9998,2 54760  53.2169 248.9374 0001908 127.0358 233.0809 15.08832198 76183,6917.904,95.438,541.089,538.449,0.0
54760.0,STARLINK-5220,PAYLOAD,2024-04-21 18:17:49,15.08848544,0.0001235,53.217,248.0457,103.6013,256.5117,8.5111e-05,1.067e-05,0.0,0 STARLINK-5220,1 54760U 22175C   24112.76237615  .00001067  00000-0  85111-4 0  9990,2 54760  53.2170 248.0457 0001235 103.6013 256.5117 15.08848544 74057,6917.854,95.437,540.574,538.865,0.0
54760.0,STARLINK-5220,PAYLOAD,2024-04-22 10:11:42,15.08827296,0.000166,53.2177,245.0741,90.7652,269.353,-0.00012008,-2.198e-05,0.0,0 STARLINK-5220,1 54760U 22175C   24113.42479432 -.00002198  00000-0 -12008-3 0  9991,2 54760  53.2177 245.0741 0001660  90.7652 269.3530 15.08827296 74157,6917.919,95.438,540.933,538.636,0.0
54760.0,STARLINK-5220,PAYLOAD,2024-04-22 14:57:51,15.08830275,0.0001598,53.2173,244.1855,84.8168,275.3006,-4.7168e-05,-1.038e-05,0.0,0 STARLINK-5220,1 54760U 22175C   24113.62351456 -.00001038  00000-0 -47168-4 0  9996,2 54760  53.2173 244.1855 0001598  84.8168 275.3006 15.08830275 76344,6917.91,95.438,540.881,538.67,0.0
54760.0,STARLINK-5220,PAYLOAD,2024-04-23 13:13:15,15.08841894,0.0001372,53.218,240.0169,93.2055,266.9094,9.1433e-05,1.168e-05,0.0,0 STARLINK-5220,1 54760U 22175C   24114.55087561  .00001168  00000-0  91433-4 0  9998,2 54760  53.2180 240.0169 0001372  93.2055 266.9094 15.08841894 74322,6917.875,95.437,540.689,538.79,0.0
54760.0,STARLINK-5220,PAYLOAD,2024-04-23 14:48:37,15.08862652,0.0001346,53.2172,239.7188,114.0625,246.0508,0.00040887,6.229e-05,0.0,0 STARLINK-5220,1 54760U 22175C   24114.61710474  .00006229  00000-0  40887-3 0  9990,2 54760  53.2172 239.7188 0001346 114.0625 246.0508 15.08862652 76499,6917.811,95.436,540.607,538.745,0.0
54760.0,STARLINK-5220,PAYLOAD,2024-04-24 13:04:02,15.08839568,0.000131,53.2166,235.5579,88.3123,271.8019,6.8025e-05,7.95e-06,0.0,0 STARLINK-5220,1 54760U 22175C   24115.54447908  .00000795  00000-0  68025-4 0  9999,2 54760  53.2166 235.5579 0001310  88.3123 271.8019 15.08839568 74476,6917.882,95.438,540.653,538.84,0.0
54760.0,STARLINK-5220,PAYLOAD,2024-04-25 12:54:50,15.08849824,0.0001329,53.2179,231.1034,105.1977,254.9162,-0.00010636,-1.981e-05,0.0,0 STARLINK-5220,1 54760U 22175C   24116.53807921 -.00001981  00000-0 -10636-3 0  9998,2 54760  53.2179 231.1034 0001329 105.1977 254.9162 15.08849824 76786,6917.85,95.437,540.635,538.796,0.0
54760.0,STARLINK-5220,PAYLOAD,2024-04-26 12:45:35,15.08854434,0.0001373,53.2173,226.6376,107.4719,252.6423,0.00026372,3.913e-05,0.0,0 STARLINK-5220,1 54760U 22175C   24117.53166597  .00003913  00000-0  26372-3 0  9995,2 54760  53.2173 226.6376 0001373 107.4719 252.6423 15.08854434 74771,6917.836,95.437,540.651,538.751,0.0
54760.0,STARLINK-5220,PAYLOAD,2024-04-26 14:20:59,15.08852316,0.0001461,53.2179,226.3412,93.5999,266.516,0.00023726,3.491e-05,0.0,0 STARLINK-5220,1 54760U 22175C   24117.59790842  .00003491  00000-0  23726-3 0  9998,2 54760  53.2179 226.3412 0001461  93.5999 266.5160 15.08852316 76948,6917.843,95.437,540.718,538.697,0.0
54760.0,STARLINK-5220,PAYLOAD,2024-04-26 23:53:18,15.08843029,0.0001162,53.2151,224.559,89.8147,270.2978,9.7239e-05,1.26e-05,0.0,0 STARLINK-5220,1 54760U 22175C   24117.99535491  .00001260  00000-0  97239-4 0  9992,2 54760  53.2151 224.5590 0001162  89.8147 270.2978 15.08843029 74843,6917.871,95.437,540.54,538.932,0.0
54760.0,STARLINK-5220,PAYLOAD,2024-04-27 14:11:45,15.08855441,0.0001232,53.217,221.8815,104.6576,255.4553,0.00019221,2.774e-05,0.0,0 STARLINK-5220,1 54760U 22175C   24118.59150437  .00002774  00000-0  19221-3 0  9997,2 54760  53.2170 221.8815 0001232 104.6576 255.4553 15.08855441 74939,6917.833,95.437,540.55,538.846,0.0
54760.0,STARLINK-5220,PAYLOAD,2024-04-28 12:27:12,15.08824241,0.0001631,53.2184,217.7188,82.8629,277.2549,-0.00021362,-3.685e-05,0.0,0 STARLINK-5220,1 54760U 22175C   24119.51889698 -.00003685  00000-0 -21362-3 0  9991,2 54760  53.2184 217.7188 0001631  82.8629 277.2549 15.08824241 75077,6917.929,95.439,540.922,538.665,0.0
54760.0,STARLINK-5220,PAYLOAD,2024-04-28 14:02:35,15.08826021,0.0001551,53.2183,217.4215,75.7185,284.398,-0.00022689,-3.896e-05,0.0,0 STARLINK-5220,1 54760U 22175C   24119.58513671 -.00003896  00000-0 -22689-3 0  9990,2 54760  53.2183 217.4215 0001551  75.7185 284.3980 15.08826021 77240,6917.923,95.438,540.861,538.715,0.0
54760.0,STARLINK-5220,PAYLOAD,2024-04-29 05:56:26,15.08831366,0.0001467,53.2182,214.4479,86.2281,273.8879,5.9744e-05,6.63e-06,0.0,0 STARLINK-5220,1 54760U 22175C   24120.24752935  .00000663  00000-0  59744-4 0  9993,2 54760  53.2182 214.4479 0001467  86.2281 273.8879 15.08831366 75187,6917.907,95.438,540.787,538.757,0.0
54760.0,STARLINK-5220,PAYLOAD,2024-04-29 12:17:58,15.08844779,0.0001408,53.2174,213.2589,92.2827,267.8327,7.536e-05,9.12e-06,0.0,0 STARLINK-5220,1 54760U 22175C   24120.51248115  .00000912  00000-0  75360-4 0  9992,2 54760  53.2174 213.2589 0001408  92.2827 267.8327 15.08844779 75223,6917.866,95.437,540.705,538.757,0.0
54760.0,STARLINK-5220,PAYLOAD,2024-04-29 13:53:21,15.08843919,0.0001318,53.2164,212.9617,80.5806,279.5335,0.00014587,2.035e-05,0.0,0 STARLINK-5220,1 54760U 22175C   24120.57872164  .00002035  00000-0  14587-3 0  9996,2 54760  53.2164 212.9617 0001318  80.5806 279.5335 15.08843919 77391,6917.868,95.437,540.645,538.822,0.0
54760.0,STARLINK-5220,PAYLOAD,2024-04-30 05:47:13,15.08840624,0.0001437,53.216,209.9883,74.696,285.4191,0.00052911,8.143e-05,0.0,0 STARLINK-5220,1 54760U 22175C   24121.24112796  .00008143  00000-0  52911-3 0  9998,2 54760  53.2160 209.9883 0001437  74.6960 285.4191 15.08840624 75333,6917.878,95.438,540.738,538.749,0.0
54760.0,STARLINK-5220,PAYLOAD,2024-04-30 12:08:45,15.08853465,0.0001475,53.215,208.7982,77.1655,282.9502,0.00048241,7.401e-05,0.0,0 STARLINK-5220,1 54760U 22175C   24121.50608330  .00007401  00000-0  48241-3 0  9998,2 54760  53.2150 208.7982 0001475  77.1655 282.9502 15.08853465 77539,6917.839,95.437,540.725,538.684,0.0
54760.0,STARLINK-5220,PAYLOAD,2024-05-01 05:37:59,15.08847574,0.0001373,53.214,205.5275,74.0861,286.0282,0.0001121,1.497e-05,0.0,0 STARLINK-5220,1 54760U 22175C   24122.23472091  .00001497  00000-0  11210-3 0  9997,2 54760  53.2140 205.5275 0001373  74.0861 286.0282 15.08847574 75486,6917.857,95.437,540.672,538.772,0.0
